CCSDS_OMM_VERS = 2.0
CREATION_DATE  = 
ORIGINATOR     = 

OBJECT_NAME    = SL-3 R/B
OBJECT_ID      = 1982-079B
CENTER_NAME    = EARTH
REF_FRAME      = TEME
TIME_SYSTEM    = UTC
MEAN_ELEMENT_THEORY = SGP/SGP4

EPOCH          = 2026-02-15T11:36:20.875680
MEAN_MOTION    = 15.24457910
ECCENTRICITY   = .0024218
INCLINATION    = 81.1441
RA_OF_ASC_NODE = 219.2908
ARG_OF_PERICENTER = 240.6661
MEAN_ANOMALY   = 119.2153

EPHEMERIS_TYPE = 0
CLASSIFICATION_TYPE = U
NORAD_CAT_ID   = 13403
ELEMENT_SET_NO = 999
REV_AT_EPOCH   = 37431
BSTAR          = .31223E-3
MEAN_MOTION_DOT = .7755E-4
MEAN_MOTION_DDOT = 0

CCSDS_OMM_VERS = 2.0
CREATION_DATE  = 
ORIGINATOR     = 

OBJECT_NAME    = SL-14 R/B
OBJECT_ID      = 1982-092B
CENTER_NAME    = EARTH
REF_FRAME      = TEME
TIME_SYSTEM    = UTC
MEAN_ELEMENT_THEORY = SGP/SGP4

EPOCH          = 2026-02-15T10:24:29.736864
MEAN_MOTION    = 14.86642413
ECCENTRICITY   = .002076
INCLINATION    = 82.5709
RA_OF_ASC_NODE = 162.2098
ARG_OF_PERICENTER = 19.3373
MEAN_ANOMALY   = 49.3646

EPHEMERIS_TYPE = 0
CLASSIFICATION_TYPE = U
NORAD_CAT_ID   = 13553
ELEMENT_SET_NO = 999
REV_AT_EPOCH   = 32562
BSTAR          = .69155E-4
MEAN_MOTION_DOT = .641E-5
MEAN_MOTION_DDOT = 0

CCSDS_OMM_VERS = 2.0
CREATION_DATE  = 
ORIGINATOR     = 

OBJECT_NAME    = SL-3 R/B
OBJECT_ID      = 1983-010B
CENTER_NAME    = EARTH
REF_FRAME      = TEME
TIME_SYSTEM    = UTC
MEAN_ELEMENT_THEORY = SGP/SGP4

EPOCH          = 2026-02-15T08:46:05.811456
MEAN_MOTION    = 15.45533284
ECCENTRICITY   = .0018408
INCLINATION    = 81.1024
RA_OF_ASC_NODE = 29.5986
ARG_OF_PERICENTER = 121.3029
MEAN_ANOMALY   = 239.0021

EPHEMERIS_TYPE = 0
CLASSIFICATION_TYPE = U
NORAD_CAT_ID   = 13819
ELEMENT_SET_NO = 999
REV_AT_EPOCH   = 35449
BSTAR          = .3956E-3
MEAN_MOTION_DOT = .19162E-3
MEAN_MOTION_DDOT = 0

CCSDS_OMM_VERS = 2.0
CREATION_DATE  = 
ORIGINATOR     = 

OBJECT_NAME    = SL-3 R/B
OBJECT_ID      = 1983-075B
CENTER_NAME    = EARTH
REF_FRAME      = TEME
TIME_SYSTEM    = UTC
MEAN_ELEMENT_THEORY = SGP/SGP4

EPOCH          = 2026-02-15T12:03:59.194944
MEAN_MOTION    = 15.37842150
ECCENTRICITY   = .002027
INCLINATION    = 97.6127
RA_OF_ASC_NODE = 50.2525
ARG_OF_PERICENTER = 313.2440
MEAN_ANOMALY   = 46.7111

EPHEMERIS_TYPE = 0
CLASSIFICATION_TYPE = U
NORAD_CAT_ID   = 14208
ELEMENT_SET_NO = 999
REV_AT_EPOCH   = 32674
BSTAR          = .38424E-3
MEAN_MOTION_DOT = .1431E-3
MEAN_MOTION_DDOT = 0

CCSDS_OMM_VERS = 2.0
CREATION_DATE  = 
ORIGINATOR     = 

OBJECT_NAME    = COSMOS 1536
OBJECT_ID      = 1984-013A
CENTER_NAME    = EARTH
REF_FRAME      = TEME
TIME_SYSTEM    = UTC
MEAN_ELEMENT_THEORY = SGP/SGP4

EPOCH          = 2026-02-15T06:13:52.503744
MEAN_MOTION    = 15.23518302
ECCENTRICITY   = .0014274
INCLINATION    = 82.5468
RA_OF_ASC_NODE = 130.1380
ARG_OF_PERICENTER = 7.6957
MEAN_ANOMALY   = 352.4496

EPHEMERIS_TYPE = 0
CLASSIFICATION_TYPE = U
NORAD_CAT_ID   = 14699
ELEMENT_SET_NO = 999
REV_AT_EPOCH   = 26920
BSTAR          = .27206E-3
MEAN_MOTION_DOT = .6544E-4
MEAN_MOTION_DDOT = 0

CCSDS_OMM_VERS = 2.0
CREATION_DATE  = 
ORIGINATOR     = 

OBJECT_NAME    = SL-14 R/B
OBJECT_ID      = 1984-027B
CENTER_NAME    = EARTH
REF_FRAME      = TEME
TIME_SYSTEM    = UTC
MEAN_ELEMENT_THEORY = SGP/SGP4

EPOCH          = 2026-02-15T12:56:06.703008
MEAN_MOTION    = 14.85954139
ECCENTRICITY   = .0019187
INCLINATION    = 82.5389
RA_OF_ASC_NODE = 265.7928
ARG_OF_PERICENTER = 50.0686
MEAN_ANOMALY   = 310.2213

EPHEMERIS_TYPE = 0
CLASSIFICATION_TYPE = U
NORAD_CAT_ID   = 14820
ELEMENT_SET_NO = 999
REV_AT_EPOCH   = 24434
BSTAR          = .56077E-4
MEAN_MOTION_DOT = .515E-5
MEAN_MOTION_DDOT = 0

CCSDS_OMM_VERS = 2.0
CREATION_DATE  = 
ORIGINATOR     = 

OBJECT_NAME    = SL-8 R/B
OBJECT_ID      = 1985-006B
CENTER_NAME    = EARTH
REF_FRAME      = TEME
TIME_SYSTEM    = UTC
MEAN_ELEMENT_THEORY = SGP/SGP4

EPOCH          = 2026-02-15T04:54:59.928192
MEAN_MOTION    = 14.37771867
ECCENTRICITY   = .00192654
INCLINATION    = 74.0462
RA_OF_ASC_NODE = 302.5235
ARG_OF_PERICENTER = 224.8837
MEAN_ANOMALY   = 305.8950

EPHEMERIS_TYPE = 0
CLASSIFICATION_TYPE = U
NORAD_CAT_ID   = 15483
ELEMENT_SET_NO = 999
REV_AT_EPOCH   = 15079
BSTAR          = .72736637E-4
MEAN_MOTION_DOT = .193E-5
MEAN_MOTION_DDOT = 0

CCSDS_OMM_VERS = 2.0
CREATION_DATE  = 
ORIGINATOR     = 

OBJECT_NAME    = SL-12 R/B(2)
OBJECT_ID      = 1985-042D
CENTER_NAME    = EARTH
REF_FRAME      = TEME
TIME_SYSTEM    = UTC
MEAN_ELEMENT_THEORY = SGP/SGP4

EPOCH          = 2026-02-15T11:13:55.001280
MEAN_MOTION    = 14.21976283
ECCENTRICITY   = .0034491
INCLINATION    = 71.1085
RA_OF_ASC_NODE = 134.6777
ARG_OF_PERICENTER = 163.9375
MEAN_ANOMALY   = 273.1819

EPHEMERIS_TYPE = 0
CLASSIFICATION_TYPE = U
NORAD_CAT_ID   = 15772
ELEMENT_SET_NO = 999
REV_AT_EPOCH   = 11123
BSTAR          = .38759E-4
MEAN_MOTION_DOT = .39E-6
MEAN_MOTION_DDOT = 0

CCSDS_OMM_VERS = 2.0
CREATION_DATE  = 
ORIGINATOR     = 

OBJECT_NAME    = SL-14 R/B
OBJECT_ID      = 1985-069B
CENTER_NAME    = EARTH
REF_FRAME      = TEME
TIME_SYSTEM    = UTC
MEAN_ELEMENT_THEORY = SGP/SGP4

EPOCH          = 2026-02-15T11:06:54.413856
MEAN_MOTION    = 14.86406646
ECCENTRICITY   = .0017122
INCLINATION    = 82.5244
RA_OF_ASC_NODE = 45.8362
ARG_OF_PERICENTER = 266.1339
MEAN_ANOMALY   = 93.7920

EPHEMERIS_TYPE = 0
CLASSIFICATION_TYPE = U
NORAD_CAT_ID   = 15945
ELEMENT_SET_NO = 999
REV_AT_EPOCH   = 16953
BSTAR          = .71376E-4
MEAN_MOTION_DOT = .655E-5
MEAN_MOTION_DDOT = 0

CCSDS_OMM_VERS = 2.0
CREATION_DATE  = 
ORIGINATOR     = 

OBJECT_NAME    = SL-16 R/B
OBJECT_ID      = 1985-097B
CENTER_NAME    = EARTH
REF_FRAME      = TEME
TIME_SYSTEM    = UTC
MEAN_ELEMENT_THEORY = SGP/SGP4

EPOCH          = 2026-02-15T12:47:40.596000
MEAN_MOTION    = 14.16594724
ECCENTRICITY   = .0009708
INCLINATION    = 71.0024
RA_OF_ASC_NODE = 187.1956
ARG_OF_PERICENTER = 285.4394
MEAN_ANOMALY   = 142.6655

EPHEMERIS_TYPE = 0
CLASSIFICATION_TYPE = U
NORAD_CAT_ID   = 16182
ELEMENT_SET_NO = 999
REV_AT_EPOCH   = 8409
BSTAR          = -.68845E-4
MEAN_MOTION_DOT = -.185E-5
MEAN_MOTION_DDOT = 0

CCSDS_OMM_VERS = 2.0
CREATION_DATE  = 
ORIGINATOR     = 

OBJECT_NAME    = SL-14 R/B
OBJECT_ID      = 1986-006B
CENTER_NAME    = EARTH
REF_FRAME      = TEME
TIME_SYSTEM    = UTC
MEAN_ELEMENT_THEORY = SGP/SGP4

EPOCH          = 2026-02-15T02:37:43.274496
MEAN_MOTION    = 14.86784284
ECCENTRICITY   = .00763966
INCLINATION    = 82.5256
RA_OF_ASC_NODE = 280.9920
ARG_OF_PERICENTER = 348.7636
MEAN_ANOMALY   = 11.1870

EPHEMERIS_TYPE = 0
CLASSIFICATION_TYPE = U
NORAD_CAT_ID   = 16496
ELEMENT_SET_NO = 999
REV_AT_EPOCH   = 14585
BSTAR          = .63509054E-4
MEAN_MOTION_DOT = .622E-5
MEAN_MOTION_DDOT = 0

CCSDS_OMM_VERS = 2.0
CREATION_DATE  = 
ORIGINATOR     = 

OBJECT_NAME    = COSMOS 1743
OBJECT_ID      = 1986-034A
CENTER_NAME    = EARTH
REF_FRAME      = TEME
TIME_SYSTEM    = UTC
MEAN_ELEMENT_THEORY = SGP/SGP4

EPOCH          = 2026-02-15T03:47:21.712416
MEAN_MOTION    = 15.56883262
ECCENTRICITY   = .00045688
INCLINATION    = 82.5316
RA_OF_ASC_NODE = 97.4483
ARG_OF_PERICENTER = 33.0531
MEAN_ANOMALY   = 327.1009

EPHEMERIS_TYPE = 0
CLASSIFICATION_TYPE = U
NORAD_CAT_ID   = 16719
ELEMENT_SET_NO = 999
REV_AT_EPOCH   = 17674
BSTAR          = .39987046E-3
MEAN_MOTION_DOT = .28828E-3
MEAN_MOTION_DDOT = 0

