SL-3 R/B                
1 13403U 82079B   26046.48357495  .00007755  00000+0  31223-3 0  9997
2 13403  81.1441 219.2908 0024218 240.6661 119.2153 15.24457910374313
SL-14 R/B               
1 13553U 82092B   26046.43367751  .00000641  00000+0  69155-4 0  9992
2 13553  82.5709 162.2098 0020760  19.3373  49.3646 14.86642413325628
SL-3 R/B                
1 13819U 83010B   26046.36534504  .00019162  00000+0  39560-3 0  9996
2 13819  81.1024  29.5986 0018408 121.3029 239.0021 15.45533284354490
SL-3 R/B                
1 14208U 83075B   26046.50276846  .00014310  00000+0  38424-3 0  9996
2 14208  97.6127  50.2525 0020270 313.2440  46.7111 15.37842150326744
COSMOS 1536             
1 14699U 84013A   26046.25963546  .00006544  00000+0  27206-3 0  9991
2 14699  82.5468 130.1380 0014274   7.6957 352.4496 15.23518302269204
SL-14 R/B               
1 14820U 84027B   26046.53896647  .00000515  00000+0  56077-4 0  9991
2 14820  82.5389 265.7928 0019187  50.0686 310.2213 14.85954139244340
SL-8 R/B                
1 15483U 85006B   26046.20486028  .00000193  00000+0  72737-4 0  9990
2 15483  74.0462 302.5235 0019265 224.8837 305.8950 14.37771867150796
SL-12 R/B(2)            
1 15772U 85042D   26046.46799770  .00000039  00000+0  38759-4 0  9995
2 15772  71.1085 134.6777 0034491 163.9375 273.1819 14.21976283111238
SL-14 R/B               
1 15945U 85069B   26046.46312979  .00000655  00000+0  71376-4 0  9994
2 15945  82.5244  45.8362 0017122 266.1339  93.7920 14.86406646169531
SL-16 R/B               
1 16182U 85097B   26046.53310875 -.00000185  00000+0 -68845-4 0  9997
2 16182  71.0024 187.1956 0009708 285.4394 142.6655 14.16594724 84093
SL-14 R/B               
1 16496U 86006B   26046.10952864  .00000622  00000+0  63509-4 0  9995
2 16496  82.5256 280.9920 0076396 348.7636  11.1870 14.86784284145857
COSMOS 1743             
1 16719U 86034A   26046.15789019  .00028828  00000+0  39987-3 0  9999
2 16719  82.5316  97.4483 0004568  33.0531 327.1009 15.56883262176747
